{
  "norad_id": 66848,
  "name": "STARLINK-36091",
  "history": [
    {
      "epoch": "2026-04-17T22:25:50.457792Z",
      "apogee_km": 483.7775904483706,
      "perigee_km": 482.29612578892466,
      "latitude_deg": 3.2203863816516814e-05,
      "longitude_deg": -60.343243968284746,
      "height_km": 482.7372779823425,
      "semi_major_axis_km": 6861.173858118647,
      "eccentricity": 0.00010796,
      "inclination_deg": 43.0005,
      "raan_deg": 122.1778,
      "arg_perigee_deg": 275.8942,
      "mean_anomaly_deg": 84.1787,
      "mean_motion_rev_day": 15.27584087
    },
    {
      "epoch": "2026-04-18T17:15:43.022880Z",
      "apogee_km": 483.40751658188674,
      "perigee_km": 482.58143635211945,
      "latitude_deg": 2.1986911129830884e-05,
      "longitude_deg": 11.98225130775944,
      "height_km": 482.53635055694815,
      "semi_major_axis_km": 6861.131476467002,
      "eccentricity": 6.02e-05,
      "inclination_deg": 42.9988,
      "raan_deg": 117.7457,
      "arg_perigee_deg": 304.4949,
      "mean_anomaly_deg": 55.5846,
      "mean_motion_rev_day": 15.27598241
    },
    {
      "epoch": "2026-04-19T16:48:03.242592Z",
      "apogee_km": 484.2486389910773,
      "perigee_km": 481.7607890055815,
      "latitude_deg": 6.329872125251477e-06,
      "longitude_deg": 12.390074604801358,
      "height_km": 482.4806385566318,
      "semi_major_axis_km": 6861.14171399833,
      "eccentricity": 0.0001813,
      "inclination_deg": 42.9971,
      "raan_deg": 112.2045,
      "arg_perigee_deg": 283.9929,
      "mean_anomaly_deg": 76.0721,
      "mean_motion_rev_day": 15.27594822
    },
    {
      "epoch": "2026-04-20T10:03:46.996416Z",
      "apogee_km": 483.5563276990997,
      "perigee_km": 482.5211135063746,
      "latitude_deg": -1.5899426974108194e-05,
      "longitude_deg": 108.69151052572262,
      "height_km": 482.7906410944728,
      "semi_major_axis_km": 6861.175720602737,
      "eccentricity": 7.544e-05,
      "inclination_deg": 42.9996,
      "raan_deg": 108.1472,
      "arg_perigee_deg": 272.6773,
      "mean_anomaly_deg": 87.3992,
      "mean_motion_rev_day": 15.27583465
    },
    {
      "epoch": "2026-04-21T15:52:44.488128Z",
      "apogee_km": 483.4521660280234,
      "perigee_km": 482.5766831062492,
      "latitude_deg": 4.2241701251470035e-06,
      "longitude_deg": 13.208581795996409,
      "height_km": 482.6574540489294,
      "semi_major_axis_km": 6861.151424567136,
      "eccentricity": 6.38e-05,
      "inclination_deg": 43.0009,
      "raan_deg": 101.1283,
      "arg_perigee_deg": 287.7004,
      "mean_anomaly_deg": 72.3778,
      "mean_motion_rev_day": 15.27591579
    },
    {
      "epoch": "2026-04-22T15:25:05.748096Z",
      "apogee_km": 483.90011275001416,
      "perigee_km": 482.1395399083776,
      "latitude_deg": 5.523260018818886e-05,
      "longitude_deg": 13.616928350478636,
      "height_km": 482.98845190471025,
      "semi_major_axis_km": 6861.156826329196,
      "eccentricity": 0.0001283,
      "inclination_deg": 43.0031,
      "raan_deg": 95.5919,
      "arg_perigee_deg": 257.4195,
      "mean_anomaly_deg": 102.6514,
      "mean_motion_rev_day": 15.27589775
    },
    {
      "epoch": "2026-04-23T07:06:38.413152Z",
      "apogee_km": 485.3025423839681,
      "perigee_km": 480.6699119809746,
      "latitude_deg": -2.6610559469901004e-05,
      "longitude_deg": 133.8899710337329,
      "height_km": 483.32402709920717,
      "semi_major_axis_km": 6861.123227182471,
      "eccentricity": 0.0003376,
      "inclination_deg": 43.007,
      "raan_deg": 91.8956,
      "arg_perigee_deg": 256.0327,
      "mean_anomaly_deg": 104.0149,
      "mean_motion_rev_day": 15.27600996
    },
    {
      "epoch": "2026-04-24T14:29:48.051168Z",
      "apogee_km": 483.7222617254829,
      "perigee_km": 482.4021669966405,
      "latitude_deg": 1.7554835866091374e-05,
      "longitude_deg": 14.42838027765217,
      "height_km": 483.0409304339513,
      "semi_major_axis_km": 6861.199214361061,
      "eccentricity": 9.62e-05,
      "inclination_deg": 43.0033,
      "raan_deg": 84.5131,
      "arg_perigee_deg": 252.1708,
      "mean_anomaly_deg": 107.9039,
      "mean_motion_rev_day": 15.27575619
    },
    {
      "epoch": "2026-04-25T06:11:21.791904Z",
      "apogee_km": 483.84542380067705,
      "perigee_km": 482.17130433184593,
      "latitude_deg": 1.4409490740904138e-05,
      "longitude_deg": 134.70351362766908,
      "height_km": 482.924099293044,
      "semi_major_axis_km": 6861.145364066261,
      "eccentricity": 0.000122,
      "inclination_deg": 43.0013,
      "raan_deg": 80.8233,
      "arg_perigee_deg": 260.436,
      "mean_anomaly_deg": 99.6354,
      "mean_motion_rev_day": 15.27593603
    },
    {
      "epoch": "2026-04-26T21:25:16.574880Z",
      "apogee_km": 483.07982470056777,
      "perigee_km": 482.90527756478696,
      "latitude_deg": 3.942468654065182e-05,
      "longitude_deg": -104.61861786710338,
      "height_km": 482.7892649965841,
      "semi_major_axis_km": 6861.129551132677,
      "eccentricity": 1.272e-05,
      "inclination_deg": 42.9963,
      "raan_deg": 71.5906,
      "arg_perigee_deg": 255.6683,
      "mean_anomaly_deg": 104.4155,
      "mean_motion_rev_day": 15.27598884
    },
    {
      "epoch": "2026-04-27T20:57:37.471104Z",
      "apogee_km": 483.2554488910655,
      "perigee_km": 482.75184116772107,
      "latitude_deg": -1.4393501062700067e-05,
      "longitude_deg": -104.21056012971742,
      "height_km": 483.00471333557425,
      "semi_major_axis_km": 6861.140645029393,
      "eccentricity": 3.67e-05,
      "inclination_deg": 42.9994,
      "raan_deg": 66.0525,
      "arg_perigee_deg": 153.7962,
      "mean_anomaly_deg": 206.2908,
      "mean_motion_rev_day": 15.27595179
    },
    {
      "epoch": "2026-04-28T12:39:11.609280Z",
      "apogee_km": 483.55615878236586,
      "perigee_km": 482.51874920492355,
      "latitude_deg": 1.849122414865444e-05,
      "longitude_deg": 16.056751958598237,
      "height_km": 482.8814323773857,
      "semi_major_axis_km": 6861.174453993644,
      "eccentricity": 7.56e-05,
      "inclination_deg": 43.0005,
      "raan_deg": 62.3565,
      "arg_perigee_deg": 262.4893,
      "mean_anomaly_deg": 97.5873,
      "mean_motion_rev_day": 15.27583888
    },
    {
      "epoch": "2026-04-29T12:11:32.929728Z",
      "apogee_km": 483.5783135956881,
      "perigee_km": 482.4961691943363,
      "latitude_deg": 7.552631674847845e-06,
      "longitude_deg": 16.464382678900407,
      "height_km": 482.29034122704087,
      "semi_major_axis_km": 6861.174241395012,
      "eccentricity": 7.886e-05,
      "inclination_deg": 42.9979,
      "raan_deg": 56.8197,
      "arg_perigee_deg": 344.8851,
      "mean_anomaly_deg": 15.1977,
      "mean_motion_rev_day": 15.27583959
    },
    {
      "epoch": "2026-04-30T03:53:06.166752Z",
      "apogee_km": 483.9886075989316,
      "perigee_km": 481.9762412717437,
      "latitude_deg": 2.6946430588899567e-05,
      "longitude_deg": 136.73654503048976,
      "height_km": 482.77910102529484,
      "semi_major_axis_km": 6861.119424435337,
      "eccentricity": 0.00014665,
      "inclination_deg": 43.001,
      "raan_deg": 53.1248,
      "arg_perigee_deg": 268.8715,
      "mean_anomaly_deg": 91.1969,
      "mean_motion_rev_day": 15.27602266
    },
    {
      "epoch": "2026-05-02T02:57:47.710368Z",
      "apogee_km": 484.14774312831196,
      "perigee_km": 482.38024623208184,
      "latitude_deg": -1.4007110043788692e-05,
      "longitude_deg": 137.5525677046398,
      "height_km": 482.76689184781054,
      "semi_major_axis_km": 6861.400994680197,
      "eccentricity": 0.0001288,
      "inclination_deg": 43.0012,
      "raan_deg": 42.0474,
      "arg_perigee_deg": 288.0508,
      "mean_anomaly_deg": 72.0203,
      "mean_motion_rev_day": 15.27508235
    },
    {
      "epoch": "2026-05-03T18:11:43.665792Z",
      "apogee_km": 484.03401181999834,
      "perigee_km": 481.88100036398737,
      "latitude_deg": -3.79103218975688e-05,
      "longitude_deg": -101.77191922716717,
      "height_km": 482.1784503360013,
      "semi_major_axis_km": 6861.094506091993,
      "eccentricity": 0.0001569,
      "inclination_deg": 43.0012,
      "raan_deg": 32.8173,
      "arg_perigee_deg": 301.0921,
      "mean_anomaly_deg": 58.9776,
      "mean_motion_rev_day": 15.27610588
    },
    {
      "epoch": "2026-05-04T19:18:12.788352Z",
      "apogee_km": 484.00738847060893,
      "perigee_km": 481.9847264452701,
      "latitude_deg": 2.4382198927637324e-05,
      "longitude_deg": -125.33225300012327,
      "height_km": 482.58437702347425,
      "semi_major_axis_km": 6861.13305745794,
      "eccentricity": 0.0001474,
      "inclination_deg": 43.0015,
      "raan_deg": 26.9094,
      "arg_perigee_deg": 280.7485,
      "mean_anomaly_deg": 79.3201,
      "mean_motion_rev_day": 15.27597713
    },
    {
      "epoch": "2026-05-05T01:34:50.306592Z",
      "apogee_km": 484.02027350184017,
      "perigee_km": 482.0244994595005,
      "latitude_deg": 3.325171799352166e-05,
      "longitude_deg": 138.77773864425814,
      "height_km": 482.62416454688486,
      "semi_major_axis_km": 6861.15938648067,
      "eccentricity": 0.00014544,
      "inclination_deg": 43.0016,
      "raan_deg": 25.4335,
      "arg_perigee_deg": 280.1089,
      "mean_anomaly_deg": 79.9599,
      "mean_motion_rev_day": 15.2758892
    },
    {
      "epoch": "2026-05-05T21:58:51.835872Z",
      "apogee_km": 483.7787702041787,
      "perigee_km": 482.12387570068313,
      "latitude_deg": 4.493299836715543e-05,
      "longitude_deg": -172.86693985211755,
      "height_km": 482.55812313467993,
      "semi_major_axis_km": 6861.088322952431,
      "eccentricity": 0.0001206,
      "inclination_deg": 43.0015,
      "raan_deg": 20.633,
      "arg_perigee_deg": 281.8488,
      "mean_anomaly_deg": 78.2229,
      "mean_motion_rev_day": 15.27612653
    }
  ]
}